start=new Date('2022-12-25T00:00:00.000Z').valueOf();
sats=[{"INCLINATION":"53.0535","EPOCH":"2022-12-24T12:52:26.159232","REV_AT_EPOCH":"12326","MEAN_MOTION_DOT":"0.00001748","COUNTRY_CODE":"US","FILE":"3721442","PERIAPSIS":"545.597","BSTAR":"0.00013621000000","DECAY_DATE":null,"MEAN_MOTION_DDOT":"0.0000000000000","TIME_SYSTEM":"UTC","RA_OF_ASC_NODE":"14.1333","CENTER_NAME":"EARTH","SEMIMAJOR_AXIS":"6925.345","MEAN_ANOMALY":"324.1539","RCS_SIZE":"LARGE","APOAPSIS":"548.823","PERIOD":"95.592","MEAN_ELEMENT_THEORY":"SGP4","NORAD_CAT_ID":"46585","LAUNCH_DATE":"2020-10-06","MEAN_MOTION":"15.06401248","TLE_LINE1":"1 46585U 20070BF  22358.53641388  .00001748  00000-0  13621-3 0  9991","OBJECT_ID":"2020-070BF","EPHEMERIS_TYPE":"0","SITE":"AFETR","ELEMENT_SET_NO":"999","GP_ID":"221375960","ECCENTRICITY":"0.00023290","OBJECT_TYPE":"PAYLOAD","CLASSIFICATION_TYPE":"U","OBJECT_NAME":"STARLINK-1736","TLE_LINE2":"2 46585  53.0535  14.1333 0002329  35.9606 324.1539 15.06401248123263","ARG_OF_PERICENTER":"35.9606","REF_FRAME":"TEME"},{"GP_ID":"221376210","SITE":"AFETR","ELEMENT_SET_NO":"999","OBJECT_ID":"2020-070BG","EPHEMERIS_TYPE":"0","OBJECT_NAME":"STARLINK-1737","TLE_LINE2":"2 46586  53.0554  14.1664 0001793  51.1974 308.9175 15.06398955123260","ARG_OF_PERICENTER":"51.1974","REF_FRAME":"TEME","CLASSIFICATION_TYPE":"U","OBJECT_TYPE":"PAYLOAD","ECCENTRICITY":"0.00017930","LAUNCH_DATE":"2020-10-06","NORAD_CAT_ID":"46586","MEAN_ELEMENT_THEORY":"SGP4","PERIOD":"95.592","TLE_LINE1":"1 46586U 20070BG  22358.52630046  .00000995  00000-0  85680-4 0  9998","MEAN_MOTION":"15.06398955","RCS_SIZE":"LARGE","APOAPSIS":"548.458","MEAN_ANOMALY":"308.9175","SEMIMAJOR_AXIS":"6925.352","CENTER_NAME":"EARTH","RA_OF_ASC_NODE":"14.1664","MEAN_MOTION_DDOT":"0.0000000000000","TIME_SYSTEM":"UTC","REV_AT_EPOCH":"12326","INCLINATION":"53.0554","EPOCH":"2022-12-24T12:37:52.359744","PERIAPSIS":"545.975","DECAY_DATE":null,"BSTAR":"0.00008568000000","COUNTRY_CODE":"US","FILE":"3721442","MEAN_MOTION_DOT":"0.00000995"},{"ECCENTRICITY":"0.00023370","OBJECT_TYPE":"PAYLOAD","CLASSIFICATION_TYPE":"U","ARG_OF_PERICENTER":"41.6209","REF_FRAME":"TEME","TLE_LINE2":"2 46588  53.0562  13.9744 0002337  41.6209 318.4958 15.06403083123272","OBJECT_NAME":"STARLINK-1746","EPHEMERIS_TYPE":"0","OBJECT_ID":"2020-070BJ","SITE":"AFETR","ELEMENT_SET_NO":"999","GP_ID":"221376961","MEAN_MOTION":"15.06403083","TLE_LINE1":"1 46588U 20070BJ  22358.57422031  .00001563  00000-0  12382-3 0  9998","PERIOD":"95.592","MEAN_ELEMENT_THEORY":"SGP4","LAUNCH_DATE":"2020-10-06","NORAD_CAT_ID":"46588","TIME_SYSTEM":"UTC","MEAN_MOTION_DDOT":"0.0000000000000","RA_OF_ASC_NODE":"13.9744","MEAN_ANOMALY":"318.4958","SEMIMAJOR_AXIS":"6925.339","CENTER_NAME":"EARTH","APOAPSIS":"548.823","RCS_SIZE":"LARGE","MEAN_MOTION_DOT":"0.00001563","FILE":"3721442","COUNTRY_CODE":"US","DECAY_DATE":null,"BSTAR":"0.00012382000000","PERIAPSIS":"545.586","EPOCH":"2022-12-24T13:46:52.634784","INCLINATION":"53.0562","REV_AT_EPOCH":"12327"},{"INCLINATION":"53.0547","EPOCH":"2022-12-24T18:22:52.272192","REV_AT_EPOCH":"12329","COUNTRY_CODE":"US","FILE":"3721442","MEAN_MOTION_DOT":"0.00001760","PERIAPSIS":"545.596","DECAY_DATE":null,"BSTAR":"0.00013705000000","RA_OF_ASC_NODE":"13.1057","MEAN_MOTION_DDOT":"0.0000000000000","TIME_SYSTEM":"UTC","RCS_SIZE":"LARGE","APOAPSIS":"548.794","MEAN_ANOMALY":"329.2744","SEMIMAJOR_AXIS":"6925.330","CENTER_NAME":"EARTH","MEAN_ELEMENT_THEORY":"SGP4","PERIOD":"95.592","NORAD_CAT_ID":"46589","LAUNCH_DATE":"2020-10-06","MEAN_MOTION":"15.06406068","TLE_LINE1":"1 46589U 20070BK  22358.76588278  .00001760  00000-0  13705-3 0  9995","ELEMENT_SET_NO":"999","SITE":"AFETR","OBJECT_ID":"2020-070BK","EPHEMERIS_TYPE":"0","GP_ID":"221377710","OBJECT_TYPE":"PAYLOAD","ECCENTRICITY":"0.00023090","TLE_LINE2":"2 46589  53.0547  13.1057 0002309  30.8381 329.2744 15.06406068123296","OBJECT_NAME":"STARLINK-1749","ARG_OF_PERICENTER":"30.8381","REF_FRAME":"TEME","CLASSIFICATION_TYPE":"U"},{"MEAN_ELEMENT_THEORY":"SGP4","PERIOD":"95.592","LAUNCH_DATE":"2020-10-06","NORAD_CAT_ID":"46591","MEAN_MOTION":"15.06396467","TLE_LINE1":"1 46591U 20070BM  22358.75483329  .00001925  00000-0  14815-3 0  9994","SITE":"AFETR","ELEMENT_SET_NO":"999","OBJECT_ID":"2020-070BM","EPHEMERIS_TYPE":"0","GP_ID":"221376460","OBJECT_TYPE":"PAYLOAD","ECCENTRICITY":"0.00019630","TLE_LINE2":"2 46591  53.0564  13.1580 0001963  48.4488 311.6670 15.06396467122357","OBJECT_NAME":"STARLINK-1755","REF_FRAME":"TEME","ARG_OF_PERICENTER":"48.4488","CLASSIFICATION_TYPE":"U","INCLINATION":"53.0564","EPOCH":"2022-12-24T18:06:57.596256","REV_AT_EPOCH":"12235","COUNTRY_CODE":"US","FILE":"3721442","MEAN_MOTION_DOT":"0.00001925","PERIAPSIS":"545.865","DECAY_DATE":null,"BSTAR":"0.00014815000000","RA_OF_ASC_NODE":"13.1580","MEAN_MOTION_DDOT":"0.0000000000000","TIME_SYSTEM":"UTC","RCS_SIZE":"LARGE","APOAPSIS":"548.584","SEMIMAJOR_AXIS":"6925.359","CENTER_NAME":"EARTH","MEAN_ANOMALY":"311.6670"},{"OBJECT_TYPE":"PAYLOAD","ECCENTRICITY":"0.00023430","TLE_LINE2":"2 46671  53.0540 103.2718 0002343  37.6657 322.4495 15.06394343120573","OBJECT_NAME":"STARLINK-1715","REF_FRAME":"TEME","ARG_OF_PERICENTER":"37.6657","CLASSIFICATION_TYPE":"U","ELEMENT_SET_NO":"999","SITE":"AFETR","OBJECT_ID":"2020-073B","EPHEMERIS_TYPE":"0","GP_ID":"221375968","MEAN_MOTION":"15.06394343","TLE_LINE1":"1 46671U 20073B   22358.78342427  .00001508  00000-0  12016-3 0  9990","MEAN_ELEMENT_THEORY":"SGP4","PERIOD":"95.592","NORAD_CAT_ID":"46671","LAUNCH_DATE":"2020-10-18","RA_OF_ASC_NODE":"103.2718","MEAN_MOTION_DDOT":"0.0000000000000","TIME_SYSTEM":"UTC","RCS_SIZE":"LARGE","APOAPSIS":"548.854","MEAN_ANOMALY":"322.4495","SEMIMAJOR_AXIS":"6925.366","CENTER_NAME":"EARTH","COUNTRY_CODE":"US","FILE":"3721442","MEAN_MOTION_DOT":"0.00001508","PERIAPSIS":"545.608","DECAY_DATE":null,"BSTAR":"0.00012016000000","INCLINATION":"53.0540","EPOCH":"2022-12-24T18:48:07.856928","REV_AT_EPOCH":"12057"},{"PERIOD":"95.592","MEAN_ELEMENT_THEORY":"SGP4","NORAD_CAT_ID":"46672","LAUNCH_DATE":"2020-10-18","MEAN_MOTION":"15.06407177","TLE_LINE1":"1 46672U 20073C   22358.80043327  .00000668  00000-0  63738-4 0  9995","OBJECT_ID":"2020-073C","EPHEMERIS_TYPE":"0","ELEMENT_SET_NO":"999","SITE":"AFETR","GP_ID":"221376218","ECCENTRICITY":"0.00014080","OBJECT_TYPE":"PAYLOAD","CLASSIFICATION_TYPE":"U","REF_FRAME":"TEME","ARG_OF_PERICENTER":"70.2340","TLE_LINE2":"2 46672  53.0538  97.9555 0001408  70.2340 289.8801 15.06407177120658","OBJECT_NAME":"STARLINK-1716","EPOCH":"2022-12-24T19:12:37.434528","INCLINATION":"53.0538","REV_AT_EPOCH":"12065","MEAN_MOTION_DOT":"0.00000668","FILE":"3721442","COUNTRY_CODE":"US","BSTAR":"0.00006373800000","DECAY_DATE":null,"PERIAPSIS":"546.216","TIME_SYSTEM":"UTC","MEAN_MOTION_DDOT":"0.0000000000000","RA_OF_ASC_NODE":"97.9555","SEMIMAJOR_AXIS":"6925.327","MEAN_ANOMALY":"289.8801","CENTER_NAME":"EARTH","APOAPSIS":"548.167","RCS_SIZE":"LARGE"},{"FILE":"3721442","COUNTRY_CODE":"US","MEAN_MOTION_DOT":"0.00003350","BSTAR":"0.00024369000000","DECAY_DATE":null,"PERIAPSIS":"545.997","EPOCH":"2022-12-24T15:35:42.034848","INCLINATION":"53.0538","REV_AT_EPOCH":"12041","RA_OF_ASC_NODE":"113.7365","TIME_SYSTEM":"UTC","MEAN_MOTION_DDOT":"0.0000000000000","APOAPSIS":"548.407","RCS_SIZE":"LARGE","MEAN_ANOMALY":"310.5513","SEMIMAJOR_AXIS":"6925.337","CENTER_NAME":"EARTH","MEAN_MOTION":"15.06403786","TLE_LINE1":"1 46673U 20073D   22358.64979207  .00003350  00000-0  24369-3 0  9990","MEAN_ELEMENT_THEORY":"SGP4","PERIOD":"95.592","LAUNCH_DATE":"2020-10-18","NORAD_CAT_ID":"46673","OBJECT_TYPE":"PAYLOAD","ECCENTRICITY":"0.00017400","REF_FRAME":"TEME","ARG_OF_PERICENTER":"49.5627","TLE_LINE2":"2 46673  53.0538 113.7365 0001740  49.5627 310.5513 15.06403786120419","OBJECT_NAME":"STARLINK-1717","CLASSIFICATION_TYPE":"U","ELEMENT_SET_NO":"999","SITE":"AFETR","OBJECT_ID":"2020-073D","EPHEMERIS_TYPE":"0","GP_ID":"221376969"},{"MEAN_MOTION_DOT":"0.00000057","FILE":"3721442","COUNTRY_CODE":"US","DECAY_DATE":null,"BSTAR":"0.00002271100000","PERIAPSIS":"546.003","EPOCH":"2022-12-24T18:14:14.875296","INCLINATION":"53.0539","REV_AT_EPOCH":"12064","TIME_SYSTEM":"UTC","MEAN_MOTION_DDOT":"0.0000000000000","RA_OF_ASC_NODE":"98.1241","SEMIMAJOR_AXIS":"6925.363","CENTER_NAME":"EARTH","MEAN_ANOMALY":"311.5625","RCS_SIZE":"LARGE","APOAPSIS":"548.452","MEAN_MOTION":"15.06395447","TLE_LINE1":"1 46674U 20073E   22358.75989439  .00000057  00000-0  22711-4 0  9992","PERIOD":"95.592","MEAN_ELEMENT_THEORY":"SGP4","LAUNCH_DATE":"2020-10-18","NORAD_CAT_ID":"46674","ECCENTRICITY":"0.00017680","OBJECT_TYPE":"PAYLOAD","CLASSIFICATION_TYPE":"U","REF_FRAME":"TEME","ARG_OF_PERICENTER":"48.5515","TLE_LINE2":"2 46674  53.0539  98.1241 0001768  48.5515 311.5625 15.06395447120649","OBJECT_NAME":"STARLINK-1718","OBJECT_ID":"2020-073E","EPHEMERIS_TYPE":"0","ELEMENT_SET_NO":"999","SITE":"AFETR","GP_ID":"221377718"},{"GP_ID":"221376468","ELEMENT_SET_NO":"999","SITE":"AFETR","EPHEMERIS_TYPE":"0","OBJECT_ID":"2020-073F","REF_FRAME":"TEME","ARG_OF_PERICENTER":"41.9486","TLE_LINE2":"2 46675  53.0553  98.1448 0001766  41.9486 318.1638 15.06403557120646","OBJECT_NAME":"STARLINK-1720","CLASSIFICATION_TYPE":"U","OBJECT_TYPE":"PAYLOAD","ECCENTRICITY":"0.00017660","LAUNCH_DATE":"2020-10-18","NORAD_CAT_ID":"46675","MEAN_ELEMENT_THEORY":"SGP4","PERIOD":"95.592","TLE_LINE1":"1 46675U 20073F   22358.75620720  .00000496  00000-0  52215-4 0  9997","MEAN_MOTION":"15.06403557","RCS_SIZE":"LARGE","APOAPSIS":"548.426","CENTER_NAME":"EARTH","SEMIMAJOR_AXIS":"6925.338","MEAN_ANOMALY":"318.1638","RA_OF_ASC_NODE":"98.1448","TIME_SYSTEM":"UTC","MEAN_MOTION_DDOT":"0.0000000000000","REV_AT_EPOCH":"12064","EPOCH":"2022-12-24T18:08:56.302080","INCLINATION":"53.0553","BSTAR":"0.00005221500000","DECAY_DATE":null,"PERIAPSIS":"545.980","FILE":"3721442","COUNTRY_CODE":"US","MEAN_MOTION_DOT":"0.00000496"}];
